{"fetched_at":"2026-07-11T06:35:06.838Z","source":"https://celestrak.org/NORAD/elements/gp.php?GROUP=oneweb&FORMAT=JSON","constellation":"oneweb","records":[{"OBJECT_NAME":"ONEWEB-0558","OBJECT_ID":"2023-043P","EPOCH":"2026-07-10T12:45:21.454848","CLASSIFICATION_TYPE":"U","MEAN_MOTION":13.21825569,"ECCENTRICITY":0.0002389,"INCLINATION":87.9244,"RA_OF_ASC_NODE":239.3333,"ARG_OF_PERICENTER":97.8283,"MEAN_ANOMALY":262.3122,"EPHEMERIS_TYPE":0,"NORAD_CAT_ID":56059,"ELEMENT_SET_NO":999,"REV_AT_EPOCH":16132,"BSTAR":0.000044114,"MEAN_MOTION_DOT":3.1e-7,"MEAN_MOTION_DDOT":0},{"OBJECT_NAME":"ONEWEB-0559","OBJECT_ID":"2023-043Q","EPOCH":"2026-07-10T03:23:22.528608","CLASSIFICATION_TYPE":"U","MEAN_MOTION":13.21824602,"ECCENTRICITY":0.00022274,"INCLINATION":87.9238,"RA_OF_ASC_NODE":239.4062,"ARG_OF_PERICENTER":101.6004,"MEAN_ANOMALY":258.538,"EPHEMERIS_TYPE":0,"NORAD_CAT_ID":56060,"ELEMENT_SET_NO":999,"REV_AT_EPOCH":16128,"BSTAR":-0.00014480268,"MEAN_MOTION_DOT":-4.7e-7,"MEAN_MOTION_DDOT":0},{"OBJECT_NAME":"ONEWEB-0566","OBJECT_ID":"2023-043R","EPOCH":"2026-07-10T03:13:41.332224","CLASSIFICATION_TYPE":"U","MEAN_MOTION":13.21823919,"ECCENTRICITY":0.00022689,"INCLINATION":87.9237,"RA_OF_ASC_NODE":239.4055,"ARG_OF_PERICENTER":104.1599,"MEAN_ANOMALY":255.9787,"EPHEMERIS_TYPE":0,"NORAD_CAT_ID":56061,"ELEMENT_SET_NO":999,"REV_AT_EPOCH":16126,"BSTAR":0.000017210397,"MEAN_MOTION_DOT":2e-7,"MEAN_MOTION_DDOT":0},{"OBJECT_NAME":"ONEWEB-0568","OBJECT_ID":"2023-043S","EPOCH":"2026-07-09T12:08:42.072000","CLASSIFICATION_TYPE":"U","MEAN_MOTION":13.16596015,"ECCENTRICITY":0.00021986,"INCLINATION":87.9086,"RA_OF_ASC_NODE":224.3381,"ARG_OF_PERICENTER":87.436,"MEAN_ANOMALY":272.7023,"EPHEMERIS_TYPE":0,"NORAD_CAT_ID":56062,"ELEMENT_SET_NO":999,"REV_AT_EPOCH":16191,"BSTAR":-0.000009919224,"MEAN_MOTION_DOT":9e-8,"MEAN_MOTION_DDOT":0},{"OBJECT_NAME":"ONEWEB-0574","OBJECT_ID":"2023-043T","EPOCH":"2026-07-10T03:04:01.750656","CLASSIFICATION_TYPE":"U","MEAN_MOTION":13.218251,"ECCENTRICITY":0.0001895,"INCLINATION":87.9234,"RA_OF_ASC_NODE":239.4116,"ARG_OF_PERICENTER":92.009,"MEAN_ANOMALY":268.1261,"EPHEMERIS_TYPE":0,"NORAD_CAT_ID":56063,"ELEMENT_SET_NO":999,"REV_AT_EPOCH":16130,"BSTAR":0.00020904844,"MEAN_MOTION_DOT":9.9e-7,"MEAN_MOTION_DDOT":0},{"OBJECT_NAME":"ONEWEB-0575","OBJECT_ID":"2023-043U","EPOCH":"2026-07-10T00:45:37.310112","CLASSIFICATION_TYPE":"U","MEAN_MOTION":13.16595606,"ECCENTRICITY":0.00018412,"INCLINATION":87.9079,"RA_OF_ASC_NODE":224.2294,"ARG_OF_PERICENTER":83.3139,"MEAN_ANOMALY":276.8202,"EPHEMERIS_TYPE":0,"NORAD_CAT_ID":56064,"ELEMENT_SET_NO":999,"REV_AT_EPOCH":16197,"BSTAR":-0.000006641888,"MEAN_MOTION_DOT":1e-7,"MEAN_MOTION_DDOT":0},{"OBJECT_NAME":"ONEWEB-0576","OBJECT_ID":"2023-043V","EPOCH":"2026-07-10T02:07:41.429280","CLASSIFICATION_TYPE":"U","MEAN_MOTION":13.16595228,"ECCENTRICITY":0.00019086,"INCLINATION":87.9088,"RA_OF_ASC_NODE":224.2265,"ARG_OF_PERICENTER":91.5076,"MEAN_ANOMALY":268.6273,"EPHEMERIS_TYPE":0,"NORAD_CAT_ID":56065,"ELEMENT_SET_NO":999,"REV_AT_EPOCH":16197,"BSTAR":0.00012142504,"MEAN_MOTION_DOT":5.9e-7,"MEAN_MOTION_DDOT":0},{"OBJECT_NAME":"ONEWEB-0577","OBJECT_ID":"2023-043W","EPOCH":"2026-07-10T07:45:07.808256","CLASSIFICATION_TYPE":"U","MEAN_MOTION":13.16595424,"ECCENTRICITY":0.0001453,"INCLINATION":87.9083,"RA_OF_ASC_NODE":224.1782,"ARG_OF_PERICENTER":78.3005,"MEAN_ANOMALY":281.8289,"EPHEMERIS_TYPE":0,"NORAD_CAT_ID":56066,"ELEMENT_SET_NO":999,"REV_AT_EPOCH":16203,"BSTAR":0.00013326388,"MEAN_MOTION_DOT":6.4e-7,"MEAN_MOTION_DDOT":0},{"OBJECT_NAME":"ONEWEB-0578","OBJECT_ID":"2023-043X","EPOCH":"2026-07-10T02:44:38.448096","CLASSIFICATION_TYPE":"U","MEAN_MOTION":13.21853938,"ECCENTRICITY":0.000234,"INCLINATION":87.924,"RA_OF_ASC_NODE":239.4105,"ARG_OF_PERICENTER":87.2771,"MEAN_ANOMALY":272.8631,"EPHEMERIS_TYPE":0,"NORAD_CAT_ID":56067,"ELEMENT_SET_NO":999,"REV_AT_EPOCH":16126,"BSTAR":-0.013989492,"MEAN_MOTION_DOT":-0.00005763,"MEAN_MOTION_DDOT":0},{"OBJECT_NAME":"ONEWEB-0579","OBJECT_ID":"2023-043Y","EPOCH":"2026-07-10T02:32:30.622272","CLASSIFICATION_TYPE":"U","MEAN_MOTION":13.21827695,"ECCENTRICITY":0.00020258,"INCLINATION":87.9243,"RA_OF_ASC_NODE":239.4105,"ARG_OF_PERICENTER":104.7533,"MEAN_ANOMALY":255.3825,"EPHEMERIS_TYPE":0,"NORAD_CAT_ID":56068,"ELEMENT_SET_NO":999,"REV_AT_EPOCH":16127,"BSTAR":0.000002095119,"MEAN_MOTION_DOT":1.4e-7,"MEAN_MOTION_DDOT":0},{"OBJECT_NAME":"ONEWEB-0581","OBJECT_ID":"2023-043Z","EPOCH":"2026-07-10T07:54:14.784192","CLASSIFICATION_TYPE":"U","MEAN_MOTION":13.16594656,"ECCENTRICITY":0.00015664,"INCLINATION":87.9078,"RA_OF_ASC_NODE":224.1882,"ARG_OF_PERICENTER":85.8371,"MEAN_ANOMALY":274.2939,"EPHEMERIS_TYPE":0,"NORAD_CAT_ID":56069,"ELEMENT_SET_NO":999,"REV_AT_EPOCH":16200,"BSTAR":-0.000052155983,"MEAN_MOTION_DOT":-7e-8,"MEAN_MOTION_DDOT":0},{"OBJECT_NAME":"ONEWEB-0609","OBJECT_ID":"2023-043AA","EPOCH":"2026-07-10T12:44:36.392928","CLASSIFICATION_TYPE":"U","MEAN_MOTION":13.15547239,"ECCENTRICITY":0.0002162,"INCLINATION":87.8985,"RA_OF_ASC_NODE":254.5608,"ARG_OF_PERICENTER":99.354,"MEAN_ANOMALY":260.7834,"EPHEMERIS_TYPE":0,"NORAD_CAT_ID":56070,"ELEMENT_SET_NO":999,"REV_AT_EPOCH":15950,"BSTAR":0.000024814,"MEAN_MOTION_DOT":2.2e-7,"MEAN_MOTION_DDOT":0},{"OBJECT_NAME":"ONEWEB-0613","OBJECT_ID":"2023-043AB","EPOCH":"2026-07-10T03:33:34.722720","CLASSIFICATION_TYPE":"U","MEAN_MOTION":13.15547322,"ECCENTRICITY":0.00021035,"INCLINATION":87.8992,"RA_OF_ASC_NODE":254.649,"ARG_OF_PERICENTER":103.6888,"MEAN_ANOMALY":256.4477,"EPHEMERIS_TYPE":0,"NORAD_CAT_ID":56071,"ELEMENT_SET_NO":999,"REV_AT_EPOCH":15945,"BSTAR":-0.00012713011,"MEAN_MOTION_DOT":-3.5e-7,"MEAN_MOTION_DDOT":0},{"OBJECT_NAME":"ONEWEB-0630","OBJECT_ID":"2023-043AC","EPOCH":"2026-07-10T03:26:43.977984","CLASSIFICATION_TYPE":"U","MEAN_MOTION":13.15549685,"ECCENTRICITY":0.00021435,"INCLINATION":87.8996,"RA_OF_ASC_NODE":254.6242,"ARG_OF_PERICENTER":105.9938,"MEAN_ANOMALY":254.1429,"EPHEMERIS_TYPE":0,"NORAD_CAT_ID":56072,"ELEMENT_SET_NO":999,"REV_AT_EPOCH":15944,"BSTAR":-0.00021444105,"MEAN_MOTION_DOT":-6.8e-7,"MEAN_MOTION_DDOT":0},{"OBJECT_NAME":"ONEWEB-0632","OBJECT_ID":"2023-043AD","EPOCH":"2026-07-10T03:19:53.651424","CLASSIFICATION_TYPE":"U","MEAN_MOTION":13.15547772,"ECCENTRICITY":0.0001916,"INCLINATION":87.8989,"RA_OF_ASC_NODE":254.6411,"ARG_OF_PERICENTER":97.8341,"MEAN_ANOMALY":262.3007,"EPHEMERIS_TYPE":0,"NORAD_CAT_ID":56073,"ELEMENT_SET_NO":999,"REV_AT_EPOCH":15944,"BSTAR":-0.0002094907,"MEAN_MOTION_DOT":-6.6e-7,"MEAN_MOTION_DDOT":0},{"OBJECT_NAME":"ONEWEB-0633","OBJECT_ID":"2023-043AE","EPOCH":"2026-07-10T03:10:46.033536","CLASSIFICATION_TYPE":"U","MEAN_MOTION":13.15548028,"ECCENTRICITY":0.00022652,"INCLINATION":87.899,"RA_OF_ASC_NODE":254.6191,"ARG_OF_PERICENTER":107.0577,"MEAN_ANOMALY":253.0802,"EPHEMERIS_TYPE":0,"NORAD_CAT_ID":56074,"ELEMENT_SET_NO":999,"REV_AT_EPOCH":15942,"BSTAR":-0.00010665796,"MEAN_MOTION_DOT":-2.7e-7,"MEAN_MOTION_DDOT":0}]}
